{"type": "FeatureCollection", "features": [ {"type": "Feature", "properties": {"norad_id": 34433, "name": "COSMOS 2251 DEB", "group": "cosmos-2251-debris", "lat": 6.979383274895916, "lon": 130.17997387386032, "alt_km": 876.7708993077567, "timestamp": "2025-12-27T20:30:59.674285+00:00", "meta": {"OBJECT_NAME": "COSMOS 2251 DEB", "OBJECT_ID": "1993-036SA", "EPOCH": "2025-12-26T08:47:50.388288", "MEAN_MOTION": 14.12917761, "ECCENTRICITY": 0.01529044, "INCLINATION": 74.0102, "RA_OF_ASC_NODE": 130.8036, "ARG_OF_PERICENTER": 266.0106, "MEAN_ANOMALY": 92.3544, "EPHEMERIS_TYPE": 0, "CLASSIFICATION_TYPE": "U", "NORAD_CAT_ID": 34433, "ELEMENT_SET_NO": 999, "REV_AT_EPOCH": 86142, "BSTAR": 0.0016772605, "MEAN_MOTION_DOT": 3.465e-05, "MEAN_MOTION_DDOT": 0}, "tle": {"line1": "1 34433U 93036SA  25360.36655542  .00003465  00000+0  16773-2 0  9993", "line2": "2 34433  74.0102 130.8036 0152904 266.0106  92.3544 14.12917761861423"}}, "geometry": {"type": "Point", "coordinates": [130.17997387386032, 6.979383274895916]}}, {"type": "Feature", "properties": {"norad_id": 34434, "name": "COSMOS 2251 DEB", "group": "cosmos-2251-debris", "lat": 72.21685824361954, "lon": 47.39955534855089, "alt_km": 758.1700211128364, "timestamp": "2025-12-27T20:30:59.674295+00:00", "meta": {"OBJECT_NAME": "COSMOS 2251 DEB", "OBJECT_ID": "1993-036SB", "EPOCH": "2025-12-27T08:37:15.748320", "MEAN_MOTION": 13.89895091, "ECCENTRICITY": 0.0273388, "INCLINATION": 74.0626, "RA_OF_ASC_NODE": 345.2586, "ARG_OF_PERICENTER": 118.9799, "MEAN_ANOMALY": 5.7939, "EPHEMERIS_TYPE": 0, "CLASSIFICATION_TYPE": "U", "NORAD_CAT_ID": 34434, "ELEMENT_SET_NO": 999, "REV_AT_EPOCH": 84169, "BSTAR": 0.0019829, "MEAN_MOTION_DOT": 3.277e-05, "MEAN_MOTION_DDOT": 0}, "tle": {"line1": "1 34434U 93036SB  25361.35921005  .00003277  00000+0  19829-2 0  9990", "line2": "2 34434  74.0626 345.2586 0273388 118.9799   5.7939 13.89895091841697"}}, "geometry": {"type": "Point", "coordinates": [47.39955534855089, 72.21685824361954]}}, {"type": "Feature", "properties": {"norad_id": 34446, "name": "COSMOS 2251 DEB", "group": "cosmos-2251-debris", "lat": -73.5711892914825, "lon": -75.02650881993436, "alt_km": 742.4465033224797, "timestamp": "2025-12-27T20:30:59.674305+00:00", "meta": {"OBJECT_NAME": "COSMOS 2251 DEB", "OBJECT_ID": "1993-036SP", "EPOCH": "2025-12-27T11:00:47.581920", "MEAN_MOTION": 14.4936839, "ECCENTRICITY": 0.0050418, "INCLINATION": 74.0414, "RA_OF_ASC_NODE": 29.678, "ARG_OF_PERICENTER": 164.1042, "MEAN_ANOMALY": 196.1715, "EPHEMERIS_TYPE": 0, "CLASSIFICATION_TYPE": "U", "NORAD_CAT_ID": 34446, "ELEMENT_SET_NO": 999, "REV_AT_EPOCH": 88907, "BSTAR": 0.00013137, "MEAN_MOTION_DOT": 4.82e-06, "MEAN_MOTION_DDOT": 0}, "tle": {"line1": "1 34446U 93036SP  25361.45888405  .00000482  00000+0  13137-3 0  9992", "line2": "2 34446  74.0414  29.6780 0050418 164.1042 196.1715 14.49368390889070"}}, "geometry": {"type": "Point", "coordinates": [-75.02650881993436, -73.5711892914825]}}, {"type": "Feature", "properties": {"norad_id": 34449, "name": "COSMOS 2251 DEB", "group": "cosmos-2251-debris", "lat": 27.459776225330064, "lon": 48.612538992938184, "alt_km": 567.6850124531029, "timestamp": "2025-12-27T20:30:59.674315+00:00", "meta": {"OBJECT_NAME": "COSMOS 2251 DEB", "OBJECT_ID": "1993-036SS", "EPOCH": "2025-12-26T12:50:59.003232", "MEAN_MOTION": 14.95603421, "ECCENTRICITY": 0.0022706, "INCLINATION": 74.0324, "RA_OF_ASC_NODE": 42.7181, "ARG_OF_PERICENTER": 76.9534, "MEAN_ANOMALY": 50.6798, "EPHEMERIS_TYPE": 0, "CLASSIFICATION_TYPE": "U", "NORAD_CAT_ID": 34449, "ELEMENT_SET_NO": 999, "REV_AT_EPOCH": 88899, "BSTAR": 0.002431, "MEAN_MOTION_DOT": 0.00027206, "MEAN_MOTION_DDOT": 0}, "tle": {"line1": "1 34449U 93036SS  25360.53540513  .00027206  00000+0  24310-2 0  9995", "line2": "2 34449  74.0324  42.7181 0022706  76.9534  50.6798 14.95603421888992"}}, "geometry": {"type": "Point", "coordinates": [48.612538992938184, 27.459776225330064]}}, {"type": "Feature", "properties": {"norad_id": 34451, "name": "COSMOS 2251 DEB", "group": "cosmos-2251-debris", "lat": 36.94415320894396, "lon": 69.78241139444368, "alt_km": 560.4406111777498, "timestamp": "2025-12-27T20:30:59.674325+00:00", "meta": {"OBJECT_NAME": "COSMOS 2251 DEB", "OBJECT_ID": "1993-036SU", "EPOCH": "2025-12-27T05:54:15.397920", "MEAN_MOTION": 14.96406014, "ECCENTRICITY": 0.002389, "INCLINATION": 74.0458, "RA_OF_ASC_NODE": 58.5881, "ARG_OF_PERICENTER": 69.5037, "MEAN_ANOMALY": 290.8709, "EPHEMERIS_TYPE": 0, "CLASSIFICATION_TYPE": "U", "NORAD_CAT_ID": 34451, "ELEMENT_SET_NO": 999, "REV_AT_EPOCH": 88852, "BSTAR": 0.0028656, "MEAN_MOTION_DOT": 0.00032787, "MEAN_MOTION_DDOT": 0}, "tle": {"line1": "1 34451U 93036SU  25361.24601155  .00032787  00000+0  28656-2 0  9994", "line2": "2 34451  74.0458  58.5881 0023890  69.5037 290.8709 14.96406014888525"}}, "geometry": {"type": "Point", "coordinates": [69.78241139444368, 36.94415320894396]}}, {"type": "Feature", "properties": {"norad_id": 34452, "name": "COSMOS 2251 DEB", "group": "cosmos-2251-debris", "lat": -73.71775618447597, "lon": 72.89759306012544, "alt_km": 507.46731514826934, "timestamp": "2025-12-27T20:30:59.674335+00:00", "meta": {"OBJECT_NAME": "COSMOS 2251 DEB", "OBJECT_ID": "1993-036SV", "EPOCH": "2025-12-27T09:55:11.436384", "MEAN_MOTION": 15.1212038, "ECCENTRICITY": 0.0063713, "INCLINATION": 74.0315, "RA_OF_ASC_NODE": 152.4388, "ARG_OF_PERICENTER": 225.4442, "MEAN_ANOMALY": 164.6763, "EPHEMERIS_TYPE": 0, "CLASSIFICATION_TYPE": "U", "NORAD_CAT_ID": 34452, "ELEMENT_SET_NO": 999, "REV_AT_EPOCH": 90884, "BSTAR": 0.0011018, "MEAN_MOTION_DOT": 0.00019955, "MEAN_MOTION_DDOT": 0}, "tle": {"line1": "1 34452U 93036SV  25361.41332681  .00019955  00000+0  11018-2 0  9995", "line2": "2 34452  74.0315 152.4388 0063713 225.4442 164.6763 15.12120380908849"}}, "geometry": {"type": "Point", "coordinates": [72.89759306012544, -73.71775618447597]}}, {"type": "Feature", "properties": {"norad_id": 34454, "name": "COSMOS 2251 DEB", "group": "cosmos-2251-debris", "lat": -60.97515183703716, "lon": -141.20468865529884, "alt_km": 744.2800485421358, "timestamp": "2025-12-27T20:30:59.674345+00:00", "meta": {"OBJECT_NAME": "COSMOS 2251 DEB", "OBJECT_ID": "1993-036SX", "EPOCH": "2025-12-27T02:27:45.241344", "MEAN_MOTION": 14.38830581, "ECCENTRICITY": 0.00360198, "INCLINATION": 74.0581, "RA_OF_ASC_NODE": 251.1864, "ARG_OF_PERICENTER": 310.9053, "MEAN_ANOMALY": 48.8983, "EPHEMERIS_TYPE": 0, "CLASSIFICATION_TYPE": "U", "NORAD_CAT_ID": 34454, "ELEMENT_SET_NO": 999, "REV_AT_EPOCH": 88274, "BSTAR": 0.00024553519, "MEAN_MOTION_DOT": 7.34e-06, "MEAN_MOTION_DDOT": 0}, "tle": {"line1": "1 34454U 93036SX  25361.10260696  .00000734  00000+0  24554-3 0  9994", "line2": "2 34454  74.0581 251.1864 0036019 310.9053  48.8983 14.38830581882744"}}, "geometry": {"type": "Point", "coordinates": [-141.20468865529884, -60.97515183703716]}}, {"type": "Feature", "properties": {"norad_id": 34459, "name": "COSMOS 2251 DEB", "group": "cosmos-2251-debris", "lat": 11.79973683292674, "lon": -128.65669692553985, "alt_km": 861.5991271554813, "timestamp": "2025-12-27T20:30:59.674355+00:00", "meta": {"OBJECT_NAME": "COSMOS 2251 DEB", "OBJECT_ID": "1993-036TC", "EPOCH": "2025-12-26T08:27:30.265632", "MEAN_MOTION": 14.005194, "ECCENTRICITY": 0.0192136, "INCLINATION": 74.0778, "RA_OF_ASC_NODE": 230.5206, "ARG_OF_PERICENTER": 297.2174, "MEAN_ANOMALY": 60.9494, "EPHEMERIS_TYPE": 0, "CLASSIFICATION_TYPE": "U", "NORAD_CAT_ID": 34459, "ELEMENT_SET_NO": 999, "REV_AT_EPOCH": 85902, "BSTAR": 0.00034258, "MEAN_MOTION_DOT": 5.72e-06, "MEAN_MOTION_DDOT": 0}, "tle": {"line1": "1 34459U 93036TC  25360.35243363  .00000572  00000+0  34258-3 0  9999", "line2": "2 34459  74.0778 230.5206 0192136 297.2174  60.9494 14.00519400859022"}}, "geometry": {"type": "Point", "coordinates": [-128.65669692553985, 11.79973683292674]}}, {"type": "Feature", "properties": {"norad_id": 34464, "name": "COSMOS 2251 DEB", "group": "cosmos-2251-debris", "lat": -62.489953536445185, "lon": -100.43853459440467, "alt_km": 476.3051301478008, "timestamp": "2025-12-27T20:30:59.674365+00:00", "meta": {"OBJECT_NAME": "COSMOS 2251 DEB", "OBJECT_ID": "1993-036TH", "EPOCH": "2025-12-27T10:01:03.881856", "MEAN_MOTION": 15.29201701, "ECCENTRICITY": 0.0013118, "INCLINATION": 73.9892, "RA_OF_ASC_NODE": 47.0322, "ARG_OF_PERICENTER": 229.5183, "MEAN_ANOMALY": 130.4877, "EPHEMERIS_TYPE": 0, "CLASSIFICATION_TYPE": "U", "NORAD_CAT_ID": 34464, "ELEMENT_SET_NO": 999, "REV_AT_EPOCH": 90064, "BSTAR": 0.0027905, "MEAN_MOTION_DOT": 0.00080113, "MEAN_MOTION_DDOT": 0}, "tle": {"line1": "1 34464U 93036TH  25361.41740604  .00080113  00000+0  27905-2 0  9992", "line2": "2 34464  73.9892  47.0322 0013118 229.5183 130.4877 15.29201701900640"}}, "geometry": {"type": "Point", "coordinates": [-100.43853459440467, -62.489953536445185]}}, {"type": "Feature", "properties": {"norad_id": 34468, "name": "COSMOS 2251 DEB", "group": "cosmos-2251-debris", "lat": 53.17866637884182, "lon": 111.40159642634329, "alt_km": 781.8555109854306, "timestamp": "2025-12-27T20:30:59.674375+00:00", "meta": {"OBJECT_NAME": "COSMOS 2251 DEB", "OBJECT_ID": "1993-036TM", "EPOCH": "2025-12-27T06:59:07.416384", "MEAN_MOTION": 14.47664759, "ECCENTRICITY": 0.0076195, "INCLINATION": 74.0132, "RA_OF_ASC_NODE": 89.9428, "ARG_OF_PERICENTER": 231.9281, "MEAN_ANOMALY": 127.4989, "EPHEMERIS_TYPE": 0, "CLASSIFICATION_TYPE": "U", "NORAD_CAT_ID": 34468, "ELEMENT_SET_NO": 999, "REV_AT_EPOCH": 88672, "BSTAR": 0.00041105, "MEAN_MOTION_DOT": 1.543e-05, "MEAN_MOTION_DDOT": 0}, "tle": {"line1": "1 34468U 93036TM  25361.29105806  .00001543  00000+0  41105-3 0  9990", "line2": "2 34468  74.0132  89.9428 0076195 231.9281 127.4989 14.47664759886722"}}, "geometry": {"type": "Point", "coordinates": [111.40159642634329, 53.17866637884182]}}]}